RAVAN                   
1 41849U 16067B   23142.69386722  .00008017  00000+0  56061-3 0  9997
2 41849  98.0353 296.0799 0014963 273.9426  86.0089 15.05493578356938
CELTEE 1                
1 41850U 16067C   23142.89237623  .00005671  00000+0  44427-3 0  9992
2 41850  98.0580 290.0529 0002698 348.5816  11.5345 15.01423464356628
OPTICUBE 04             
1 41851U 16067D   23142.84620620  .00002187  00000+0  18256-3 0  9991
2 41851  98.0438 288.3441 0010043 295.3455  64.6726 14.99651106356539
AEROCUBE 8D             
1 41852U 16067E   23142.66890522  .00005583  00000+0  43325-3 0  9990
2 41852  98.0676 288.8962 0004172 351.4040   8.7111 15.01789770356537
AEROCUBE 8C             
1 41853U 16067F   23142.65940196  .00005529  00000+0  43030-3 0  9996
2 41853  98.0480 288.5023 0006425 262.4000  97.6494 15.01675742356529
PROMETHEUS 2-1          
1 41854U 16067G   23142.63829491  .00010153  00000+0  71444-3 0  9998
2 41854  98.0645 291.2595 0016275 302.8334  57.1323 15.05168738356642
PROMETHEUS 2-3          
1 41855U 16067H   23142.63131485  .00010567  00000+0  74405-3 0  9997
2 41855  98.0572 291.1388 0013866 313.0669  46.9395 15.05160493356644
INS-1B                  
1 41954U 17008G   23142.67805925  .00069971  00000+0  10713-2 0  9998
2 41954  97.2010 203.1215 0005435 112.7807 247.4021 15.54108955348919
DIDO-2                  
1 42000U 17008BE  23142.69058641  .00021295  00000+0  55274-3 0  9997
2 42000  97.2022 199.1851 0007815 123.7238 236.4753 15.38968925348013
PEASSS                  
1 42015U 17008BV  23142.66917747  .00048626  00000+0  86845-3 0  9996
2 42015  97.2091 206.0978 0005224 118.7682 241.4095 15.49883058348900
AL-FARABI 1             
1 42016U 17008BW  23142.68527944  .00157120  00000+0  13074-2 0  9998
2 42016  97.2135 212.8825 0003414 164.5327 195.6040 15.69639905349419
NAYIF-1 (EO-88)         
1 42017U 17008BX  23142.67865877  .00172832  00000+0  13477-2 0  9992
2 42017  97.2110 213.0338 0003584 168.8171 191.3173 15.71162618349456
UCLSAT                  
1 42765U 17036A   23142.63427363  .00054907  00000+0  10116-2 0  9992
2 42765  97.1424 181.7979 0008027 165.5532 194.5950 15.48945427329926
AALTO-1                 
1 42775U 17036L   23142.64788392  .00018453  00000+0  55019-3 0  9994
2 42775  97.1535 173.4446 0010190 185.3001 174.8137 15.34654034328600
URSA MAIOR              
1 42776U 17036M   23142.80663490  .00021978  00000+0  61876-3 0  9998
2 42776  97.1544 174.8636 0010158 180.5324 179.5912 15.36422092328697
COMPASS 2               
1 42777U 17036N   23142.84980247  .00292961  00000+0  17273-2 0  9998
2 42777  97.1404 188.3839 0007784 174.5249 185.6104 15.77328389329521
DIAMOND RED             
1 42783U 17036U   23142.83484880  .00027442  00000+0  70317-3 0  9995
2 42783  97.1523 178.0973 0008463 181.1106 179.0123 15.39308756328897
PEGASUS                 
1 42784U 17036V   23142.84585271  .00040514  00000+0  84669-3 0  9993
2 42784  97.1486 180.6054 0008355 171.0910 189.0489 15.45351715329062
DIAMOND GREEN           
1 42785U 17036W   23142.85121411  .00028801  00000+0  71709-3 0  9993
2 42785  97.1515 178.2853 0008353 179.9274 180.1975 15.40178200328976
DIAMOND BLUE            
1 42786U 17036X   23142.60991820  .00027968  00000+0  70502-3 0  9999
2 42786  97.1520 178.0028 0008540 181.3805 178.7420 15.39804754328932
NUDTSAT                 
1 42787U 17036Y   23142.73163296  .00981957  46625-3  20606-2 0  9995
2 42787  97.1298 191.0433 0009227 217.1728 142.8912 15.98956605329561
SUCHAI                  
1 42788U 17036Z   23142.63128955  .00072102  00000+0  11105-2 0  9998
2 42788  97.1460 183.8195 0008020 167.1532 192.9928 15.53916908329324
SKCUBE                  
1 42789U 17036AA  23142.62310605  .00053474  00000+0  97113-3 0  9998
2 42789  97.1473 182.4088 0007889 167.1035 193.0420 15.49364598329152
VZLUSAT-1               
1 42790U 17036AB  23142.83941339  .00614082  15063-3  19428-2 0  9996
2 42790  97.1320 190.7365 0008026 201.6302 158.4634 15.91207886329706
ROBUSTA 1B              
1 42792U 17036AD  23142.83189432  .00063490  00000+0  10358-2 0  9991
2 42792  97.1443 183.7534 0007323 163.2514 196.8982 15.52357740329277
CICERO 6                
1 42793U 17036AE  23142.90902808  .00023090  00000+0  62157-3 0  9997
2 42793  97.1509 178.3687 0007613 179.7245 180.4006 15.37829889329014
CORVUS BC2              
1 42846U 17042X   23142.82212690  .00002770  00000+0  26067-3 0  9999
2 42846  97.3878 345.4900 0007671 303.2659  56.7827 14.94597341318938
CORVUS BC1              
1 42847U 17042Y   23142.81487996  .00002634  00000+0  24757-3 0  9995
2 42847  97.3878 345.8364 0007386 302.5479  57.5028 14.94687861318942
MIRATA                  
1 43015U 17073C   23142.93956898  .00014246  00000+0  90061-3 0  9995
2 43015  97.6365  31.4562 0214696 138.6915 223.0771 14.91966863297725
MAKERSAT 0              
1 43016U 17073D   23142.63169821  .00010135  00000+0  68396-3 0  9994
2 43016  97.6353  29.4371 0228470 148.5198 212.9927 14.87894317297512
CORVUS BC3              
1 43118U 18004H   23142.64201767  .00023134  00000+0  62891-3 0  9996
2 43118  97.3244 217.0257 0006621 224.3706 135.7009 15.37535257298110
CICERO 7                
1 43143U 18004AJ  23142.66197397  .00057288  00000+0  92881-3 0  9998
2 43143  97.3416 228.6835 0004138 204.7720 155.3335 15.52578373298795
GOMX-4B                 
1 43196U 18015E   23142.67179419  .00016913  00000+0  48843-3 0  9993
2 43196  97.5763 292.8163 0013465 297.5975  62.3900 15.35651618295036
GOMX-4A                 
1 43197U 18015F   23142.86013971  .00019513  00000+0  50861-3 0  9997
2 43197  97.5763 294.9809 0012774 291.7150  68.2735 15.38814463295202
AEROCUBE 12A            
1 43556U 18046C   23142.78267198  .03729765  11926-4  15328-2 0  9995
2 43556  51.6097 292.7408 0014880 295.7763  64.1720 16.22199171272072
AEROCUBE 12B            
1 43557U 18046D   23142.75054416  .00123446  00000+0  10813-2 0  9991
2 43557  51.6287 315.8906 0007444 219.8549 140.1901 15.67949614271710
CUBEBEL-1 (BSUSAT-1)    
1 43666U 18083E   23142.88249085  .00032193  00000+0  90048-3 0  9992
2 43666  97.3818 174.3644 0009704 197.9293 162.1610 15.36556875253314
CICERO 10               
1 43690U 18088A   23142.82356186  .00021117  00000+0  60987-3 0  9992
2 43690  85.0314  89.6945 0008994 347.7270  12.3758 15.35496338251603
PROXIMA I               
1 43694U 18088E   23142.82742623  .00025379  00000+0  67492-3 0  9993
2 43694  85.0251  85.4361 0009493 299.2652  60.7649 15.38053903251889
PROXIMA II              
1 43696U 18088G   23142.31859923  .00027158  00000+0  72544-3 0  9992
2 43696  85.0251  85.8260 0009687 301.7390  58.2916 15.37912087251791
FACSAT-1                
1 43721U 18096C   23142.72970515  .00813530  30697-3  17016-2 0  9994
2 43721  97.3023 233.5213 0012680 251.8322 108.1576 15.98896551250532
SIRION PATHFINDER-2     
1 43759U 18099B   23142.61710644  .00003259  00000+0  27621-3 0  9995
2 43759  97.5736 205.0373 0012632 197.7868 162.2914 14.98586256243791
CORVUS BC4              
1 43767U 18099K   23142.63862325  .00004501  00000+0  38539-3 0  9991
2 43767  97.5668 203.0494 0010765 200.0013 160.0789 14.98013181243700
MOVE-II                 
1 43780U 18099Y   23142.68059137  .00010138  00000+0  75135-3 0  9996
2 43780  97.5701 207.2551 0008210 232.8592 127.1884 15.03273934243903
SPACEBEE-7              
1 43816U 18099BL  23142.44106982  .00010334  00000+0  78714-3 0  9995
2 43816  97.6010 207.7932 0013383 173.7992 186.3401 15.02184115243441
SPACEBEE-5              
1 43817U 18099BM  23142.89181099  .00033727  00000+0  17605-2 0  9999
2 43817  97.5917 214.9245 0005673 167.9412 192.1957 15.15832744243868
SPACEBEE-6              
1 43818U 18099BN  23142.65154987  .00013803  00000+0  96243-3 0  9999
2 43818  97.5906 209.9346 0012366 192.5419 167.5502 15.05453965243721
SHIELDS 1               
1 43850U 18104B   23142.54969810  .00008055  00000+0  29078-3 0  9994
2 43850  85.0277 186.6114 0015762  93.8066 266.4982 15.28194985246192
STF-1                   
1 43852U 18104D   23142.58231400  .00033605  00000+0  79824-3 0  9990
2 43852  85.0252 184.7167 0013395  99.0907 261.1862 15.41432872246459
ZACUBE-2                
1 43907U 18111AH  23142.92517777  .00026350  00000+0  67275-3 0  9997
2 43907  97.1414  23.1469 0012943 310.1826  49.8286 15.39378182245269
LUME 1                  
1 43908U 18111AJ  23142.63878163  .00034494  00000+0  73026-3 0  9994
2 43908  97.1429  26.2977 0010457 296.0625  63.9547 15.44982841245447
MOVE-IIB                
1 44398U 19038N   23142.74539270  .00051677  00000+0  13642-2 0  9991
2 44398  97.6602 124.3988 0014901  35.7845 324.4395 15.38179563214759
SONATE                  
1 44400U 19038Q   23142.90401725  .00011434  00000+0  51806-3 0  9998
2 44400  97.6832 120.0418 0022159  44.7307 315.5710 15.20808292214397
LUCKY-7                 
1 44406U 19038W   23142.50623798  .00015733  00000+0  65912-3 0  9995
2 44406  97.6798 120.8162 0020546  42.2744 318.0071 15.23428487214412
BEESAT 9                
1 44412U 19038AC  23142.49817027  .00025601  00000+0  91058-3 0  9995
2 44412  97.6744 122.3185 0017185  44.2355 316.0255 15.28827545214232
JAISAT-1                
1 44419U 19038F   23142.51874487  .00025670  00000+0  90417-3 0  9992
2 44419  97.6734 123.4099 0016267  41.7571 318.4906 15.29161845214612
DUCHIFAT-3              
1 44854U 19089C   23142.68203896  .00008765  00000+0  59573-3 0  9993
2 44854  36.9617 243.6736 0008296 110.6638 249.4996 15.05894180189057
EYESAT-NANO             
1 44877U 19092E   23142.74431669  .00052837  00000+0  13143-2 0  9991
2 44877  97.4588 332.6510 0008641 219.1773 140.8848 15.40072991190182
M2 PATHFINDER           
1 45727U 20037E   23142.74495961  .00003252  00000+0  31076-3 0  9995
2 45727  97.7560 317.7932 0011904 355.3344   4.7763 14.93908830157448
